ONEWEB-0281             
1 48999U 21060AJ  23294.87766018  .00000160  00000+0  38463-3 0  9994
2 48999  87.9059  61.6833 0001879  99.6574 260.4769 13.16595553112080
ONEWEB-0282             
1 49000U 21060AK  23294.90720288  .00000076  00000+0  16452-3 0  9991
2 49000  87.9061  61.6940 0001398  84.3560 275.7730 13.16596345112063
ONEWEB-0283             
1 49001U 21060AL  23294.89665732 -.00001722  00000+0 -45405-2 0  9992
2 49001  87.9123  61.7040 0002385  86.2532 273.8872 13.16584573112079
ONEWEB-0284             
1 49002U 21060AM  23294.89031428  .00000132  00000+0  31091-3 0  9991
2 49002  87.9046  61.7107 0001361  88.8201 271.3086 13.16593020112057
ONEWEB-0285             
1 49075U 21075A   23294.62953368 -.00027684  00000+0 -77046-1 0  9995
2 49075  87.9065 183.4514 0001757  71.1947 288.9372 13.12598520108034
ONEWEB-0286             
1 49076U 21075B   23294.44742535  .00000346  00000+0  92762-3 0  9996
2 49076  87.9060 183.4980 0001904  89.3007 270.8339 13.12445206107369
ONEWEB-0287             
1 49077U 21075C   23294.23580042  .00000084  00000+0  18349-3 0  9995
2 49077  87.9249 198.6354 0001470  82.1129 278.0170 13.17650413105898
ONEWEB-0288             
1 49078U 21075D   23294.96625108  .00003081  00000+0  85267-2 0  9991
2 49078  87.9064 183.4005 0001878  77.2302 282.9037 13.12427040108059
